NORAD_CAT_ID,OBJECT_NAME,OBJECT_TYPE,EPOCH,MEAN_MOTION,ECCENTRICITY,INCLINATION,RA_OF_ASC_NODE,ARG_OF_PERICENTER,MEAN_ANOMALY,BSTAR,MEAN_MOTION_DOT,MEAN_MOTION_DDOT,TLE_LINE0,TLE_LINE1,TLE_LINE2,SEMIMAJOR_AXIS,PERIOD,APOGEE,PERIGEE,DECAYED
55665.0,STARLINK-5474,PAYLOAD,2023-04-01 20:38:09,15.69929136,0.0003225,70.0018,28.7777,272.5836,87.499,6.4385e-06,5.62e-06,0.0,0 STARLINK-5474,1 55665U 23021AP  23091.85983269  .00000562  00000-0  64385-5 0  9994,2 55665  70.0018  28.7777 0003225 272.5836  87.4990 15.69929136  7610,6737.237,91.724,361.274,356.929,0.0
55665.0,STARLINK-5474,PAYLOAD,2023-04-02 05:48:40,15.69930772,0.0003106,70.0019,27.7004,269.8357,90.2482,2.5755e-05,2.886e-05,0.0,0 STARLINK-5474,1 55665U 23021AP  23092.24213216  .00002886  00000-0  25755-4 0  9994,2 55665  70.0019  27.7004 0003106 269.8357  90.2482 15.69930772  7366,6737.232,91.724,361.19,357.004,0.0
55665.0,STARLINK-5474,PAYLOAD,2023-04-02 07:20:25,15.69930424,0.0003171,70.0029,27.5229,269.8209,90.2624,2.7585e-05,3.106e-05,0.0,0 STARLINK-5474,1 55665U 23021AP  23092.30584913  .00003106  00000-0  27585-4 0  9995,2 55665  70.0029  27.5229 0003171 269.8209  90.2624 15.69930424  7689,6737.233,91.724,361.234,356.962,0.0
55665.0,STARLINK-5474,PAYLOAD,2023-04-03 03:13:12,15.69925541,0.0003367,70.0017,25.1945,268.3748,91.7062,1.5261e-05,1.623e-05,0.0,0 STARLINK-5474,1 55665U 23021AP  23093.13416791  .00001623  00000-0  15261-4 0  9995,2 55665  70.0017  25.1945 0003367 268.3748  91.7062 15.69925541  7501,6737.247,91.724,361.38,356.844,0.0
55665.0,STARLINK-5474,PAYLOAD,2023-04-03 21:34:13,15.69926971,0.0003533,70.0013,23.0445,264.9497,95.1295,-2.3111e-06,-4.91e-06,0.0,0 STARLINK-5474,1 55665U 23021AP  23093.89876725 -.00000491  00000-0 -23111-5 0  9993,2 55665  70.0013  23.0445 0003533 264.9497  95.1295 15.69926971  7938,6737.243,91.724,361.488,356.728,0.0
55665.0,STARLINK-5474,PAYLOAD,2023-04-04 05:12:58,15.69931982,0.0002905,70.0009,22.1473,272.4233,87.663,5.0574e-06,3.96e-06,0.0,0 STARLINK-5474,1 55665U 23021AP  23094.21734750  .00000396  00000-0  50574-5 0  9996,2 55665  70.0009  22.1473 0002905 272.4233  87.6630 15.69931982  7676,6737.229,91.724,361.051,357.136,0.0
55665.0,STARLINK-5474,PAYLOAD,2023-04-04 06:44:44,15.6992338,0.0002932,70.0015,21.9687,264.9491,95.137,2.5468e-06,9.4e-07,0.0,0 STARLINK-5474,1 55665U 23021AP  23094.28106987  .00000094  00000-0  25468-5 0  9997,2 55665  70.0015  21.9687 0002932 264.9491  95.1370 15.69923380  7688,6737.253,91.724,361.094,357.143,0.0
55665.0,STARLINK-5474,PAYLOAD,2023-04-04 22:02:15,15.69919798,0.0003122,70.0022,20.1793,262.4762,97.6079,7.8165e-06,7.27e-06,0.0,0 STARLINK-5474,1 55665U 23021AP  23094.91823916  .00000727  00000-0  78165-5 0  9990,2 55665  70.0022  20.1793 0003122 262.4762  97.6079 15.69919798  8098,6737.263,91.724,361.232,357.025,0.0
55665.0,STARLINK-5474,PAYLOAD,2023-04-05 05:41:01,15.69923663,0.0002703,70.0028,19.2842,270.4732,89.6154,1.5238e-05,1.62e-05,0.0,0 STARLINK-5474,1 55665U 23021AP  23095.23682330  .00001620  00000-0  15238-4 0  9993,2 55665  70.0028  19.2842 0002703 270.4732  89.6154 15.69923663  8145,6737.252,91.724,360.938,357.296,0.0
55665.0,STARLINK-5474,PAYLOAD,2023-04-05 20:58:32,15.69923539,0.0002909,70.0028,17.4932,258.5748,101.5121,1.4824e-05,1.57e-05,0.0,0 STARLINK-5474,1 55665U 23021AP  23095.87399020  .00001570  00000-0  14824-4 0  9998,2 55665  70.0028  17.4932 0002909 258.5748 101.5121 15.69923539  8248,6737.253,91.724,361.078,357.158,0.0
55665.0,STARLINK-5474,PAYLOAD,2023-04-05 22:30:17,15.69924371,0.0003066,70.0021,17.3125,254.954,105.1316,6.2438e-06,5.38e-06,0.0,0 STARLINK-5474,1 55665U 23021AP  23095.93770621  .00000538  00000-0  62438-5 0  9993,2 55665  70.0021  17.3125 0003066 254.9540 105.1316 15.69924371  7946,6737.25,91.724,361.181,357.05,0.0
55665.0,STARLINK-5474,PAYLOAD,2023-04-06 06:09:02,15.69936819,0.0003335,70.0019,16.4157,262.9076,97.1741,3.0643e-05,3.475e-05,0.0,0 STARLINK-5474,1 55665U 23021AP  23096.25628354  .00003475  00000-0  30643-4 0  9999,2 55665  70.0019  16.4157 0003335 262.9076  97.1741 15.69936819  7997,6737.215,91.723,361.327,356.833,0.0
55665.0,STARLINK-5474,PAYLOAD,2023-04-07 03:33:35,15.69926334,0.0003292,70.0014,13.9096,265.0641,95.0179,6.3087e-06,5.46e-06,0.0,0 STARLINK-5474,1 55665U 23021AP  23097.14832202  .00000546  00000-0  63087-5 0  9992,2 55665  70.0014  13.9096 0003292 265.0641  95.0179 15.69926334  8130,6737.245,91.724,361.328,356.892,0.0
55665.0,STARLINK-5474,PAYLOAD,2023-04-08 04:01:37,15.69905602,0.0002905,70.0014,11.0425,262.3723,97.7142,-2.5668e-05,-3.295e-05,0.0,0 STARLINK-5474,1 55665U 23021AP  23098.16779912 -.00003295  00000-0 -25668-4 0  9991,2 55665  70.0014  11.0425 0002905 262.3723  97.7142 15.69905602  8297,6737.304,91.725,361.126,357.212,0.0
55665.0,STARLINK-5474,PAYLOAD,2023-04-08 13:12:07,15.69922337,0.0003334,70.0025,9.9672,269.3809,90.7005,5.3361e-06,4.29e-06,0.0,0 STARLINK-5474,1 55665U 23021AP  23098.55009127  .00000429  00000-0  53361-5 0  9994,2 55665  70.0025   9.9672 0003334 269.3809  90.7005 15.69922337  8350,6737.256,91.724,361.367,356.875,0.0
55665.0,STARLINK-5474,PAYLOAD,2023-04-09 01:26:08,15.69929169,0.0003295,70.0022,8.5354,264.3677,95.7143,2.2413e-05,2.484e-05,0.0,0 STARLINK-5474,1 55665U 23021AP  23099.05982158  .00002484  00000-0  22413-4 0  9990,2 55665  70.0022   8.5354 0003295 264.3677  95.7143 15.69929169  8430,6737.237,91.724,361.322,356.882,0.0
55665.0,STARLINK-5474,PAYLOAD,2023-04-09 21:18:55,15.69924269,0.0003322,70.0017,6.2065,270.2597,89.8218,9.6795e-06,9.51e-06,0.0,0 STARLINK-5474,1 55665U 23021AP  23099.88814285  .00000951  00000-0  96795-5 0  9998,2 55665  70.0017   6.2065 0003322 270.2597  89.8218 15.69924269  8877,6737.251,91.724,361.354,356.878,0.0
55665.0,STARLINK-5474,PAYLOAD,2023-04-10 03:25:55,15.69931079,0.0003646,70.0012,5.4915,264.2481,95.8299,2.304e-05,2.559e-05,0.0,0 STARLINK-5474,1 55665U 23021AP  23100.14300559  .00002559  00000-0  23040-4 0  9992,2 55665  70.0012   5.4915 0003646 264.2481  95.8299 15.69931079  8605,6737.231,91.724,361.553,356.64,0.0
55665.0,STARLINK-5474,PAYLOAD,2023-04-10 20:15:11,15.69936654,0.000352,70.002,3.5194,266.4203,93.659,2.6153e-05,2.935e-05,0.0,0 STARLINK-5474,1 55665U 23021AP  23100.84388439  .00002935  00000-0  26153-4 0  9998,2 55665  70.0020   3.5194 0003520 266.4203  93.6590 15.69936654  9020,6737.215,91.723,361.452,356.709,0.0
55665.0,STARLINK-5474,PAYLOAD,2023-04-11 03:53:58,15.69912381,0.000338,70.0016,2.6229,269.8185,90.2624,-2.1839e-05,-2.836e-05,0.0,0 STARLINK-5474,1 55665U 23021AP  23101.16247885 -.00002836  00000-0 -21839-4 0  9991,2 55665  70.0016   2.6229 0003380 269.8185  90.2624 15.69912381  8766,6737.285,91.725,361.427,356.872,0.0
55665.0,STARLINK-5474,PAYLOAD,2023-04-12 02:50:14,15.69912019,0.0002914,70.0012,359.9358,269.6372,90.449,-2.052e-05,-2.677e-05,0.0,0 STARLINK-5474,1 55665U 23021AP  23102.11822853 -.00002677  00000-0 -20520-4 0  9990,2 55665  70.0012 359.9358 0002914 269.6372  90.4490 15.69912019  8919,6737.286,91.725,361.114,357.187,0.0
55665.0,STARLINK-5474,PAYLOAD,2023-04-13 03:18:17,15.6992136,0.0003457,70.0011,357.0701,272.0845,87.9954,3.2076e-05,3.645e-05,0.0,0 STARLINK-5474,1 55665U 23021AP  23103.13769689  .00003645  00000-0  32076-4 0  9993,2 55665  70.0011 357.0701 0003457 272.0845  87.9954 15.69921360  9382,6737.259,91.724,361.453,356.795,0.0
55665.0,STARLINK-5474,PAYLOAD,2023-04-13 20:07:33,15.69907579,0.0003529,70.0011,355.0985,277.0489,83.0305,6.2105e-05,7.256e-05,0.0,0 STARLINK-5474,1 55665U 23021AP  23103.83858622  .00007256  00000-0  62105-4 0  9994,2 55665  70.0011 355.0985 0003529 277.0489  83.0305 15.69907579  9184,6737.298,91.725,361.541,356.786,0.0
55665.0,STARLINK-5474,PAYLOAD,2023-04-14 12:56:50,15.69920878,0.0002808,70.0031,353.1246,283.4113,76.6769,2.6136e-05,2.931e-05,0.0,0 STARLINK-5474,1 55665U 23021AP  23104.53946977  .00002931  00000-0  26136-4 0  9992,2 55665  70.0031 353.1246 0002808 283.4113  76.6769 15.69920878  9605,6737.26,91.724,361.017,357.234,0.0
55665.0,STARLINK-5474,PAYLOAD,2023-04-14 19:03:50,15.69922725,0.0003105,70.0,352.409,265.652,94.4321,2.0279e-05,2.226e-05,0.0,0 STARLINK-5474,1 55665U 23021AP  23104.79433290  .00002226  00000-0  20279-4 0  9998,2 55665  70.0000 352.4090 0003105 265.6520  94.4321 15.69922725  9330,6737.255,91.724,361.212,357.028,0.0
55665.0,STARLINK-5474,PAYLOAD,2023-04-15 02:42:36,15.69915052,0.0003156,70.0002,351.5145,277.4198,82.6639,1.5759e-06,-2.3e-07,0.0,0 STARLINK-5474,1 55665U 23021AP  23105.11292028 -.00000023  00000-0  15759-5 0  9999,2 55665  70.0002 351.5145 0003156 277.4198  82.6639 15.69915052  9696,6737.277,91.725,361.268,357.016,0.0
55665.0,STARLINK-5474,PAYLOAD,2023-04-15 22:35:22,15.69928183,0.0003175,70.0016,349.1867,269.3361,90.7471,1.019e-05,1.013e-05,0.0,0 STARLINK-5474,1 55665U 23021AP  23105.94122862  .00001013  00000-0  10190-4 0  9990,2 55665  70.0016 349.1867 0003175 269.3361  90.7471 15.69928183  9512,6737.239,91.724,361.244,356.965,0.0
55665.0,STARLINK-5474,PAYLOAD,2023-04-16 13:52:53,15.6991939,0.0003397,70.0007,347.3959,270.0845,89.9961,-9.3055e-07,-3.25e-06,0.0,0 STARLINK-5474,1 55665U 23021AP  23106.57840154 -.00000325  00000-0 -93055-6 0  9991,2 55665  70.0007 347.3959 0003397 270.0845  89.9961 15.69919390  9925,6737.265,91.724,361.418,356.841,0.0
55665.0,STARLINK-5474,PAYLOAD,2023-04-16 18:28:09,15.69923501,0.000341,70.0002,346.8583,268.1805,91.9,1.2257e-05,1.261e-05,0.0,0 STARLINK-5474,1 55665U 23021AP  23106.76955147  .00001261  00000-0  12257-4 0  9992,2 55665  70.0002 346.8583 0003410 268.1805  91.9000 15.69923501  9956,6737.253,91.724,361.415,356.82,0.0
55665.0,STARLINK-5474,PAYLOAD,2023-04-17 03:38:39,15.69919426,0.0003688,70.0001,345.7835,273.8274,86.25,-1.1595e-05,-1.607e-05,0.0,0 STARLINK-5474,1 55665U 23021AP  23107.15185027 -.00001607  00000-0 -11595-4 0  9998,2 55665  70.0001 345.7835 0003688 273.8274  86.2500 15.69919426 10015,6737.265,91.724,361.614,356.645,0.0
